{
    "links": {
        "self": "http://www.neowsapp.com/rest/v1/neo/3823897?api_key=iIulBulltgU6a56xZRHN4H3l9WmuAYTsLGpBGhQ2"
    },
    "id": "3823897",
    "neo_reference_id": "3823897",
    "name": "(2018 JZ)",
    "designation": "2018 JZ",
    "nasa_jpl_url": "http://ssd.jpl.nasa.gov/sbdb.cgi?sstr=3823897",
    "absolute_magnitude_h": 27.1,
    "estimated_diameter": {
        "kilometers": {
            "estimated_diameter_min": 0.0101054342,
            "estimated_diameter_max": 0.0225964377
        },
        "meters": {
            "estimated_diameter_min": 10.1054341542,
            "estimated_diameter_max": 22.5964377109
        },
        "miles": {
            "estimated_diameter_min": 0.0062792237,
            "estimated_diameter_max": 0.0140407711
        },
        "feet": {
            "estimated_diameter_min": 33.1543125905,
            "estimated_diameter_max": 74.1352966996
        }
    },
    "is_potentially_hazardous_asteroid": false,
    "close_approach_data": [
        {
            "close_approach_date": "2018-05-11",
            "close_approach_date_full": "2018-May-11 09:05",
            "epoch_date_close_approach": 1526029500000,
            "relative_velocity": {
                "kilometers_per_second": "13.2492765567",
                "kilometers_per_hour": "47697.3956042395",
                "miles_per_hour": "29637.3067297565"
            },
            "miss_distance": {
                "astronomical": "0.0111146238",
                "lunar": "4.3235886582",
                "kilometers": "1662724.046331306",
                "miles": "1033168.8137157828"
            },
            "orbiting_body": "Earth"
        }
    ],
    "orbital_data": {
        "orbit_id": "1",
        "orbit_determination_date": "2018-05-09 12:12:02",
        "first_observation_date": "2018-05-08",
        "last_observation_date": "2018-05-09",
        "data_arc_in_days": 1,
        "observations_used": 28,
        "orbit_uncertainty": "8",
        "minimum_orbit_intersection": ".0108333",
        "jupiter_tisserand_invariant": "3.772",
        "epoch_osculation": "2458247.5",
        "eccentricity": ".5513222973932342",
        "semi_major_axis": "1.878160144083752",
        "inclination": "2.846563863621689",
        "ascending_node_longitude": "62.52599256760968",
        "orbital_period": "940.1504478639475",
        "perihelion_distance": ".8426885785750898",
        "perihelion_argument": "225.0773746321752",
        "aphelion_distance": "2.913631709592414",
        "perihelion_time": "2458290.838707307650",
        "mean_anomaly": "343.4048532698122",
        "mean_motion": ".3829174371165081",
        "equinox": "J2000",
        "orbit_class": {
            "orbit_class_type": "APO",
            "orbit_class_description": "Near-Earth asteroid orbits which cross the Earth’s orbit similar to that of 1862 Apollo",
            "orbit_class_range": "a (semi-major axis) > 1.0 AU; q (perihelion) < 1.017 AU"
        }
    },
    "is_sentry_object": false
}